1 08820U 76039A   03144.93720655  .00000013  00000-0  10000-3 0  9215
2 08820 109.8090 173.6446 0044592 306.3877  53.2728  6.38664402375579
